OBJECT_NAME,OBJECT_ID,EPOCH,MEAN_MOTION,ECCENTRICITY,INCLINATION,RA_OF_ASC_NODE,ARG_OF_PERICENTER,MEAN_ANOMALY,EPHEMERIS_TYPE,CLASSIFICATION_TYPE,NORAD_CAT_ID,ELEMENT_SET_NO,REV_AT_EPOCH,BSTAR,MEAN_MOTION_DOT,MEAN_MOTION_DDOT
STARLINK-11553 [DTC],2025-032B,2026-06-12T04:48:56.801088,15.70905131,.00030714,42.9964,346.0464,272.4649,87.5867,0,U,63006,999,7707,.14774399E-2,.194172E-2,0
STARLINK-11526 [DTC],2025-032C,2026-06-12T04:56:24.888768,15.71092833,.00028288,42.9989,345.1903,293.9142,66.1430,0,U,63007,999,7708,.16491687E-2,.219168E-2,0
STARLINK-11405 [DTC],2025-032D,2026-06-11T22:28:44.267808,15.70872733,.00019627,42.9987,347.5021,294.5987,65.4676,0,U,63008,999,7688,.10563223E-2,.137549E-2,0
STARLINK-11586 [DTC],2025-032E,2026-06-11T05:17:19.921344,15.70878888,.0002081,42.9962,351.5775,289.8982,70.1662,0,U,63009,999,7692,.12533E-2,.163848E-2,0
STARLINK-11574 [DTC],2025-032F,2026-06-11T20:48:12.888576,15.70863394,.00027033,43.0010,347.8299,260.6532,99.4030,0,U,63010,999,7702,.11398549E-2,.148612E-2,0
STARLINK-11580 [DTC],2025-032G,2026-06-12T19:03:22.704192,15.70875257,.000238,43.0009,341.8679,261.3623,98.6975,0,U,63011,999,7702,.11358E-2,.148138E-2,0
STARLINK-11449 [DTC],2025-032H,2026-06-12T05:34:38.115840,15.70985109,.00026598,42.9999,345.4003,270.7068,89.3495,0,U,63012,999,7708,.13449855E-2,.176942E-2,0
STARLINK-11577 [DTC],2025-032J,2026-06-11T20:40:33.925728,15.70874474,.00026171,43.0006,347.7833,246.1864,113.8729,0,U,63013,999,7702,.10977497E-2,.143075E-2,0
STARLINK-11578 [DTC],2025-032K,2026-06-11T21:03:30.609504,15.70896828,.00020461,42.9986,347.9163,292.9422,67.1230,0,U,63014,999,7697,.17043844E-2,.224804E-2,0
STARLINK-11541 [DTC],2025-032L,2026-06-12T05:11:43.507392,15.71266625,.00023912,43.0006,345.2728,357.8979,2.1879,0,U,63015,999,7709,.23732199E-2,.321882E-2,0
STARLINK-11545 [DTC],2025-032M,2026-06-12T19:11:02.022144,15.70974933,.0002318,43.0002,341.9089,254.7275,105.3337,0,U,63016,999,7718,.22666E-2,.302952E-2,0
STARLINK-11400 [DTC],2025-032N,2026-06-12T18:17:41.271072,15.70901886,.0002128,42.9992,342.5027,265.2178,94.8447,0,U,63017,999,7716,.67931E-3,.87875E-3,0
STARLINK-32870,2025-032P,2026-06-12T06:25:34.366368,15.27604032,.00018228,42.9996,161.9907,267.4453,92.6190,0,U,63018,999,7508,.49624335E-3,.13428E-3,0
STARLINK-32872,2025-032Q,2026-06-12T06:57:01.491840,15.27606459,.00003592,43.0091,162.1646,174.4051,185.6805,0,U,63019,999,7508,.45404166E-3,.12263E-3,0
STARLINK-32677,2025-032R,2026-06-12T06:31:06.849120,15.27606224,.00024608,43.0086,162.0293,278.2438,81.8135,0,U,63020,999,7507,.62639211E-3,.17029E-3,0
STARLINK-32929,2025-032S,2026-06-12T06:36:40.549248,15.27601136,.00015732,43.0010,162.0536,272.1931,87.8741,0,U,63021,999,7508,.95304619E-3,.26073E-3,0
STARLINK-32944,2025-032T,2026-06-12T07:02:35.184192,15.27611146,.00017473,42.9958,162.1931,266.2290,93.8361,0,U,63022,999,7508,.10935364E-2,.29981E-3,0
STARLINK-32943,2025-032U,2026-06-11T11:09:47.522304,15.27588203,.0001313,43.0009,166.2955,269.4516,90.6185,0,U,63023,999,7496,.86175E-3,.23533E-3,0
STARLINK-32803,2025-032V,2026-06-10T17:48:30.505536,15.27596283,.00025527,43.0042,170.3220,266.3607,93.6952,0,U,63024,999,7469,.6191014E-3,.16822E-3,0
STARLINK-32926,2025-032W,2026-06-12T07:19:01.712352,15.27609037,.00026033,43.0000,161.4110,269.8843,90.1710,0,U,63025,999,7509,.60554132E-3,.16454E-3,0
STARLINK-32798,2025-034A,2026-06-12T07:05:34.973088,15.30215488,.00010642,53.1562,191.3165,75.9706,284.1413,0,U,63029,999,7339,.87984026E-3,.25802E-3,0
STARLINK-32779,2025-034B,2026-06-12T20:00:01.999008,15.34383099,.0001249,53.1604,189.3059,84.6058,112.8175,0,U,63030,999,585,.5663E-3,.18795E-3,0
STARLINK-32716,2025-034C,2026-06-12T07:07:37.457184,15.34406395,.00012284,53.1587,177.8327,71.2661,288.8474,0,U,63031,999,7358,.1049693E-2,.35263E-3,0
STARLINK-32776,2025-034D,2026-06-12T06:07:09.117696,15.34408063,.00011057,53.1568,178.2777,79.6739,280.4388,0,U,63032,999,7357,.62553434E-3,.20823E-3,0
STARLINK-32772,2025-034E,2026-06-12T19:47:50.521056,15.30219785,.000136,53.1588,176.1496,87.3332,272.7824,0,U,63033,999,7365,.64429E-3,.18783E-3,0
STARLINK-32830,2025-034F,2026-06-12T06:25:31.538496,15.31727749,.00006977,53.1564,178.3606,85.6246,274.4835,0,U,63034,999,7357,.83749698E-3,.25736E-3,0
STARLINK-32801,2025-034G,2026-06-12T07:19:44.167584,15.34423847,.0001384,53.1578,177.8861,75.3792,284.7364,0,U,63035,999,7357,.11049638E-2,.3717E-3,0
STARLINK-32818,2025-034H,2026-06-12T18:33:32.887584,15.30209173,.000132,53.1580,176.5365,85.2545,274.8606,0,U,63036,999,7364,.68009E-3,.19843E-3,0
STARLINK-32810,2025-034J,2026-06-12T06:34:25.251168,15.34411878,.00011674,53.1575,178.4002,104.2489,255.8643,0,U,63037,999,7357,.79290991E-3,.26518E-3,0
STARLINK-32812,2025-034K,2026-06-12T04:33:08.521344,15.30215695,.00014635,53.1572,179.2867,118.1209,241.9940,0,U,63038,999,7355,.74852162E-3,.21886E-3,0
