STARLINK-11553 [DTC]    
1 63006U 25032B   26163.20065742  .00194172  00000+0  14774-2 0  9999
2 63006  42.9964 346.0464 0003071 272.4649  87.5867 15.70905131 77077
STARLINK-11526 [DTC]    
1 63007U 25032C   26163.20584362  .00219168  00000+0  16492-2 0  9996
2 63007  42.9989 345.1903 0002828 293.9142  66.1430 15.71092833 77085
STARLINK-11405 [DTC]    
1 63008U 25032D   26162.93662347  .00137549  00000+0  10563-2 0  9991
2 63008  42.9987 347.5021 0001962 294.5987  65.4676 15.70872733 76888
STARLINK-11586 [DTC]    
1 63009U 25032E   26162.22036946  .00163848  00000+0  12533-2 0  9994
2 63009  42.9962 351.5775 0002081 289.8982  70.1662 15.70878888 76928
STARLINK-11574 [DTC]    
1 63010U 25032F   26162.86681584  .00148612  00000+0  11399-2 0  9991
2 63010  43.0010 347.8299 0002703 260.6532  99.4030 15.70863394 77025
STARLINK-11580 [DTC]    
1 63011U 25032G   26163.79401278  .00148138  00000+0  11358-2 0  9993
2 63011  43.0009 341.8679 0002380 261.3623  98.6975 15.70875257 77020
STARLINK-11449 [DTC]    
1 63012U 25032H   26163.23238560  .00176942  00000+0  13450-2 0  9994
2 63012  42.9999 345.4003 0002659 270.7068  89.3495 15.70985109 77082
STARLINK-11577 [DTC]    
1 63013U 25032J   26162.86150377  .00143075  00000+0  10977-2 0  9994
2 63013  43.0006 347.7833 0002617 246.1864 113.8729 15.70874474 77024
STARLINK-11578 [DTC]    
1 63014U 25032K   26162.87743761  .00224804  00000+0  17044-2 0  9993
2 63014  42.9986 347.9163 0002046 292.9422  67.1230 15.70896828 76971
STARLINK-11541 [DTC]    
1 63015U 25032L   26163.21647578  .00321882  00000+0  23732-2 0  9997
2 63015  43.0006 345.2728 0002391 357.8979   2.1879 15.71266625 77095
STARLINK-11545 [DTC]    
1 63016U 25032M   26163.79932896  .00302952  00000+0  22666-2 0  9993
2 63016  43.0002 341.9089 0002318 254.7275 105.3337 15.70974933 77180
STARLINK-11400 [DTC]    
1 63017U 25032N   26163.76228323  .00087875  00000+0  67931-3 0  9993
2 63017  42.9992 342.5027 0002128 265.2178  94.8447 15.70901886 77163
STARLINK-32870          
1 63018U 25032P   26163.26775887  .00013428  00000+0  49624-3 0  9993
2 63018  42.9996 161.9907 0001822 267.4453  92.6190 15.27604032 75083
STARLINK-32872          
1 63019U 25032Q   26163.28960060  .00012263  00000+0  45404-3 0  9993
2 63019  43.0091 162.1646 0000359 174.4051 185.6805 15.27606459 75081
STARLINK-32677          
1 63020U 25032R   26163.27160705  .00017029  00000+0  62639-3 0  9996
2 63020  43.0086 162.0293 0002460 278.2438  81.8135 15.27606224 75073
STARLINK-32929          
1 63021U 25032S   26163.27546932  .00026073  00000+0  95305-3 0  9992
2 63021  43.0010 162.0536 0001573 272.1931  87.8741 15.27601136 75083
STARLINK-32944          
1 63022U 25032T   26163.29346278  .00029981  00000+0  10935-2 0  9992
2 63022  42.9958 162.1931 0001747 266.2290  93.8361 15.27611146 75085
STARLINK-32943          
1 63023U 25032U   26162.46513336  .00023533  00000+0  86175-3 0  9999
2 63023  43.0009 166.2955 0001313 269.4516  90.6185 15.27588203 74963
STARLINK-32803          
1 63024U 25032V   26161.74201974  .00016822  00000+0  61910-3 0  9995
2 63024  43.0042 170.3220 0002552 266.3607  93.6952 15.27596283 74697
STARLINK-32926          
1 63025U 25032W   26163.30488093  .00016454  00000+0  60554-3 0  9993
2 63025  43.0000 161.4110 0002603 269.8843  90.1710 15.27609037 75099
STARLINK-32798          
1 63029U 25034A   26163.29554367  .00025802  00000+0  87984-3 0  9998
2 63029  53.1562 191.3165 0001064  75.9706 284.1413 15.30215488 73397
STARLINK-32779          
1 63030U 25034B   26163.83335647  .00018795  00000+0  56630-3 0  9995
2 63030  53.1604 189.3059 0001249  84.6058 112.8175 15.34383099  5853
STARLINK-32716          
1 63031U 25034C   26163.29696131  .00035263  00000+0  10497-2 0  9993
2 63031  53.1587 177.8327 0001228  71.2661 288.8474 15.34406395 73589
STARLINK-32776          
1 63032U 25034D   26163.25496664  .00020823  00000+0  62553-3 0  9996
2 63032  53.1568 178.2777 0001105  79.6739 280.4388 15.34408063 73570
STARLINK-32772          
1 63033U 25034E   26163.82489029  .00018783  00000+0  64429-3 0  9993
2 63033  53.1588 176.1496 0001360  87.3332 272.7824 15.30219785 73651
STARLINK-32830          
1 63034U 25034F   26163.26772614  .00025736  00000+0  83750-3 0  9991
2 63034  53.1564 178.3606 0000697  85.6246 274.4835 15.31727749 73577
STARLINK-32801          
1 63035U 25034G   26163.30537231  .00037170  00000+0  11050-2 0  9999
2 63035  53.1578 177.8861 0001384  75.3792 284.7364 15.34423847 73572
STARLINK-32818          
1 63036U 25034H   26163.77329731  .00019843  00000+0  68009-3 0  9999
2 63036  53.1580 176.5365 0001320  85.2545 274.8606 15.30209173 73644
STARLINK-32810          
1 63037U 25034J   26163.27390337  .00026518  00000+0  79291-3 0  9997
2 63037  53.1575 178.4002 0001167 104.2489 255.8643 15.34411878 73579
STARLINK-32812          
1 63038U 25034K   26163.18968196  .00021886  00000+0  74852-3 0  9993
2 63038  53.1572 179.2867 0001463 118.1209 241.9940 15.30215695 73557
